{
"type": "FeatureCollection",
"name": "county_web",
"crs": { "type": "name", "properties": { "name": "urn:ogc:def:crs:EPSG::3857" } },
"features": [
{ "type": "Feature", "properties": { "OBJECTID": 5, "AREA_": 0.42922, "PERIMETER": 3.57033, "CO48_D00_": 202, "CO48_D00_I": 201, "STATE": "48", "COUNTY": "201", "NAME": "Harris", "LSAD": "06", "LSAD_TRANS": "County", "Global_DBO": 0, "Global_D_1": 0, "Shape__Are": 0.42921598089742502, "Shape__Len": 3.5703354828028599, "Shape_Length": 425901.41139991098, "Shape_Area": 6132935892.7663364 }, "geometry": { "type": "Polygon", "coordinates": [ [ [ -10628327.4629, 3516868.765000000596046 ], [ -10626550.5808, 3517132.423299998044968 ], [ -10626382.4883, 3516995.381999999284744 ], [ -10625923.8519, 3516983.157799996435642 ], [ -10625702.9939, 3517308.069700002670288 ], [ -10625731.8257, 3517399.432599999010563 ], [ -10625473.6758, 3517558.482799999415874 ], [ -10624818.0037, 3517678.157899998128414 ], [ -10624705.905, 3517513.830200001597404 ], [ -10624033.3125, 3517665.932899996638298 ], [ -10623802.2131, 3518077.339900001883507 ], [ -10622662.5239, 3518412.0603 ], [ -10622533.3933, 3518326.223899997770786 ], [ -10622443.2244, 3517808.257299996912479 ], [ -10621454.7072, 3516594.432700000703335 ], [ -10621228.7284, 3515968.070799998939037 ], [ -10621274.5921, 3515876.33219999819994 ], [ -10621048.7248, 3515571.528099998831749 ], [ -10620523.8533, 3515382.524999998509884 ], [ -10620178.9854, 3515355.506300002336502 ], [ -10619914.045, 3515165.734499998390675 ], [ -10619739.0506, 3514680.831699997186661 ], [ -10619530.2151, 3514429.060199998319149 ], [ -10619141.1534, 3514271.078500002622604 ], [ -10618318.9475, 3514442.954599998891354 ], [ -10618166.1057, 3514759.825099997222424 ], [ -10617753.3331, 3514794.175800003111362 ], [ -10617077.2896, 3514589.10249999910593 ], [ -10616951.6099, 3513931.964400000870228 ], [ -10616579.5799, 3513574.206399999558926 ], [ -10616229.0348, 3513558.254900000989437 ], [ -10616095.4514, 3513426.011900000274181 ], [ -10615869.5841, 3513609.583099998533726 ], [ -10614350.9631, 3513394.109099999070168 ], [ -10613127.8955, 3512131.569799996912479 ], [ -10612924.0694, 3511665.947499997913837 ], [ -10612304.1311, 3511660.931199997663498 ], [ -10611915.0693, 3511506.456500001251698 ], [ -10611944.0125, 3511307.738600000739098 ], [ -10611165.889, 3510332.329700000584126 ], [ -10610967.1837, 3510314.195900000631809 ], [ -10610510.217, 3510457.98139999806881 ], [ -10609722.0747, 3509305.170100003480911 ], [ -10609756.1385, 3509174.257200002670288 ], [ -10609975.2154, 3509015.826300002634525 ], [ -10610134.8475, 3508371.191600002348423 ], [ -10610004.0471, 3507774.293999999761581 ], [ -10609494.315, 3507579.620399996638298 ], [ -10609261.7684, 3507335.703900001943111 ], [ -10609153.1206, 3507578.97749999910593 ], [ -10608451.585, 3507597.621899999678135 ], [ -10607959.2189, 3507117.764700002968311 ], [ -10605743.849, 3507705.5022 ], [ -10605320.8348, 3507641.211099997162819 ], [ -10604741.9734, 3507692.644100002944469 ], [ -10600077.5743, 3512026.482199996709824 ], [ -10600065.3293, 3512345.99379999935627 ], [ -10599732.4839, 3512360.914800003170967 ], [ -10598061.0213, 3513866.999499998986721 ], [ -10586117.8844, 3525062.484200000762939 ], [ -10583510.4471, 3516888.325400002300739 ], [ -10578811.8723, 3502658.221100002527237 ], [ -10578047.5524, 3503251.023000001907349 ], [ -10576824.4849, 3502874.413199998438358 ], [ -10576698.8052, 3502965.544100001454353 ], [ -10576489.8584, 3502659.120800003409386 ], [ -10575317.7752, 3502452.7007 ], [ -10575023.8915, 3501226.58669999986887 ], [ -10574519.3915, 3500605.092100001871586 ], [ -10574191.5554, 3500537.36710000038147 ], [ -10574191.5554, 3500395.235299997031689 ], [ -10573732.919, 3500069.726300001144409 ], [ -10573512.1724, 3499105.970299996435642 ], [ -10573155.3934, 3498855.020199999213219 ], [ -10573021.2533, 3497894.310999996960163 ], [ -10573547.7946, 3497692.464599996805191 ], [ -10573688.8364, 3497714.049500003457069 ], [ -10574013.2214, 3497405.182700000703335 ], [ -10574319.0162, 3496750.085799999535084 ], [ -10574177.9743, 3496299.670100003480911 ], [ -10574874.5006, 3495368.184399999678135 ], [ -10574959.4374, 3494669.389899998903275 ], [ -10574767.5224, 3494393.9934 ], [ -10574636.722, 3494404.783100001513958 ], [ -10574750.4906, 3493791.326899997889996 ], [ -10575124.19, 3493221.183200001716614 ], [ -10574512.7119, 3492234.441500000655651 ], [ -10573817.8554, 3491517.711099997162819 ], [ -10573855.2588, 3490814.247400000691414 ], [ -10573629.3915, 3490414.505199998617172 ], [ -10573607.2389, 3489985.499200001358986 ], [ -10573702.4172, 3489664.620700001716614 ], [ -10573707.5377, 3489139.214400000870228 ], [ -10573184.336, 3488837.487700000405312 ], [ -10573162.1834, 3488676.355800002813339 ], [ -10573400.0732, 3488370.274800002574921 ], [ -10573150.3836, 3488323.670000001788139 ], [ -10572839.4682, 3488397.621500000357628 ], [ -10572664.5851, 3487269.77929999679327 ], [ -10572674.7152, 3487088.127099998295307 ], [ -10572810.6363, 3486921.625399999320507 ], [ -10572788.595, 3486618.538999997079372 ], [ -10571732.0615, 3485408.446999996900558 ], [ -10570244.0533, 3484836.109700001776218 ], [ -10569787.0868, 3484869.866599999368191 ], [ -10569391.2344, 3484245.187700003385544 ], [ -10569192.5291, 3483573.053199999034405 ], [ -10568813.7088, 3483016.454700000584126 ], [ -10568881.6138, 3482598.347800001502037 ], [ -10568485.8727, 3482547.400799997150898 ], [ -10568389.0248, 3482765.819899998605251 ], [ -10566992.8554, 3482142.14190000295639 ], [ -10566665.0195, 3481802.339900001883507 ], [ -10566389.8375, 3481654.1283999979496 ], [ -10566151.9478, 3481608.574799999594688 ], [ -10566101.0747, 3481745.108300000429153 ], [ -10566186.0114, 3481922.321800000965595 ], [ -10565982.1855, 3481886.647900000214577 ], [ -10565599.9143, 3481660.92960000038147 ], [ -10565287.329, 3481345.648900002241135 ], [ -10565367.1451, 3480788.12049999833107 ], [ -10565287.3291, 3480645.181599996984005 ], [ -10565457.2025, 3480219.453599996864796 ], [ -10565384.0655, 3479399.088200002908707 ], [ -10565514.9774, 3479402.552400000393391 ], [ -10565637.3175, 3478929.781900003552437 ], [ -10566700.6415, 3477934.518799997866154 ], [ -10566880.6452, 3477389.325099997222424 ], [ -10566542.6791, 3477094.801700003445148 ], [ -10566211.5035, 3476411.626000002026558 ], [ -10566255.5859, 3475788.769900001585484 ], [ -10566481.5646, 3475673.84740000218153 ], [ -10566498.4852, 3474755.018299996852875 ], [ -10566160.5191, 3474651.776000000536442 ], [ -10566016.5829, 3474386.17119999974966 ], [ -10566099.2932, 3474036.956299997866154 ], [ -10565761.3272, 3473832.022900000214577 ], [ -10565727.3748, 3473619.654700003564358 ], [ -10565839.4736, 3473556.047700002789497 ], [ -10566087.4935, 3473658.255199998617172 ], [ -10566345.6433, 3473443.068800002336502 ], [ -10566362.6754, 3473301.62219999730587 ], [ -10566202.9317, 3472945.512100003659725 ], [ -10566305.457, 3472604.286399997770786 ], [ -10566294.659, 3472192.288900002837181 ], [ -10566435.7008, 3472112.532200001180172 ], [ -10566800.8288, 3472125.739600002765656 ], [ -10567313.7892, 3471684.009900003671646 ], [ -10567582.1805, 3471073.178599998354912 ], [ -10567381.8054, 3470024.165399998426437 ], [ -10567444.5895, 3469840.833999998867512 ], [ -10568290.5065, 3469055.359300002455711 ], [ -10569265.6655, 3467132.706299997866154 ], [ -10568898.6449, 3466771.3838 ], [ -10568114.399, 3466994.661700002849102 ], [ -10567838.6605, 3466888.661899998784065 ], [ -10567860.8131, 3466710.245700001716614 ], [ -10568081.5596, 3466421.222000002861023 ], [ -10567906.6767, 3465757.837700001895428 ], [ -10567731.6825, 3465633.136399999260902 ], [ -10567155.8265, 3465598.917599998414516 ], [ -10567026.8072, 3465446.920000001788139 ], [ -10567194.8997, 3465184.32490000128746 ], [ -10567532.9771, 3465063.602099999785423 ], [ -10567578.8407, 3464892.515900000929832 ], [ -10567510.8244, 3464755.136100001633167 ], [ -10567087.9215, 3464671.965599998831749 ], [ -10566884.0955, 3464955.5675999969244 ], [ -10566541.0088, 3465040.662399999797344 ], [ -10566298.1095, 3464892.516099996864796 ], [ -10565976.9529, 3464927.758400000631809 ], [ -10565982.0736, 3464655.4341000020504 ], [ -10566089.1628, 3464491.145400002598763 ], [ -10566625.9456, 3464179.233199998736382 ], [ -10566647.9868, 3463992.012599997222424 ], [ -10566410.2083, 3463566.707900002598763 ], [ -10566495.145, 3463227.01240000128746 ], [ -10567375.4599, 3462477.945500001311302 ], [ -10567633.146, 3461596.9054000005126 ], [ -10568023.896, 3462314.581399999558926 ], [ -10568237.8522, 3464111.315800003707409 ], [ -10568971.6705, 3464761.543700002133846 ], [ -10571563.4116, 3465088.592200003564358 ], [ -10572309.5863, 3463107.461000002920628 ], [ -10575953.2966, 3459839.900799997150898 ], [ -10576652.9397, 3458614.77929999679327 ], [ -10577092.9857, 3457289.745099999010563 ], [ -10576855.0959, 3455975.348300002515316 ], [ -10574113.5187, 3453529.66889999806881 ], [ -10573427.2339, 3452409.234200000762939 ], [ -10574127.0996, 3451104.807499997317791 ], [ -10576206.2142, 3448941.764499999582767 ], [ -10577384.3086, 3446462.480400003492832 ], [ -10577670.6223, 3446231.367499999701977 ], [ -10577682.8674, 3446148.444300003349781 ], [ -10577291.6907, 3445641.447200000286102 ], [ -10578034.5258, 3445787.453100003302097 ], [ -10578512.7545, 3445522.058600001037121 ], [ -10578896.0276, 3446110.310000002384186 ], [ -10580334.0532, 3446570.999700002372265 ], [ -10580905.345, 3446922.1587999984622 ], [ -10581656.0839, 3447002.015600003302097 ], [ -10582571.1303, 3446958.119699999690056 ], [ -10582989.3576, 3446777.931599996984005 ], [ -10583137.524, 3446611.438799999654293 ], [ -10583429.6263, 3445905.692100003361702 ], [ -10583996.6879, 3445331.909299999475479 ], [ -10584279.2168, 3444601.537600003182888 ], [ -10584122.4789, 3444243.276500001549721 ], [ -10584154.5389, 3444003.758900001645088 ], [ -10584304.375, 3443805.187799997627735 ], [ -10584725.2741, 3443835.63849999755621 ], [ -10585019.0464, 3443727.397900000214577 ], [ -10585364.5821, 3443459.230999998748302 ], [ -10585630.8584, 3443864.937799997627735 ], [ -10586051.5349, 3443926.095600001513958 ], [ -10585989.6413, 3443300.841099999845028 ], [ -10585795.0547, 3442699.924099996685982 ], [ -10585912.6081, 3442308.965599998831749 ], [ -10586129.9037, 3442032.640799999237061 ], [ -10586706.9842, 3442184.106899999082088 ], [ -10586842.3487, 3442057.202600002288818 ], [ -10587081.0177, 3441394.045999996364117 ], [ -10586913.5932, 3441017.453500002622604 ], [ -10586945.6532, 3440818.928400002419949 ], [ -10587440.8023, 3440677.711000002920628 ], [ -10587761.4026, 3440825.068099997937679 ], [ -10587948.4194, 3440804.601800002157688 ], [ -10588395.4785, 3440438.259499996900558 ], [ -10588619.5648, 3440371.873700000345707 ], [ -10588817.6023, 3440702.398299999535084 ], [ -10588945.8423, 3440765.843699999153614 ], [ -10589469.9345, 3440665.047600001096725 ], [ -10589631.6819, 3440530.483499996364117 ], [ -10589670.8662, 3440260.336300000548363 ], [ -10591038.7606, 3440239.870800003409386 ], [ -10591241.0281, 3440152.2533999979496 ], [ -10591760.111, 3439607.503700003027916 ], [ -10592292.6635, 3439494.94990000128746 ], [ -10592689.8517, 3439245.288099996745586 ], [ -10593290.1978, 3439067.381399996578693 ], [ -10593584.9718, 3439155.247100003063679 ], [ -10593495.0258, 3439658.66499999910593 ], [ -10593934.9605, 3440117.078500002622604 ], [ -10594077.4496, 3440812.916000001132488 ], [ -10593975.9261, 3440986.88120000064373 ], [ -10594172.2936, 3441153.42960000038147 ], [ -10594260.9041, 3441365.519500002264977 ], [ -10594601.0965, 3441271.370399996638298 ], [ -10595274.357, 3441791.244800001382828 ], [ -10595530.8371, 3441799.431999996304512 ], [ -10595903.0897, 3442057.330200001597404 ], [ -10596551.526, 3443291.629100002348423 ], [ -10596380.5392, 3443641.675499998033047 ], [ -10596361.7261, 3443963.967299997806549 ], [ -10596966.5251, 3444255.814999997615814 ], [ -10596973.6496, 3444351.648900002241135 ], [ -10596740.3238, 3444403.212899997830391 ], [ -10596795.5384, 3444738.958599999547005 ], [ -10597146.4175, 3444962.111400000751019 ], [ -10597341.004, 3444760.326800003647804 ], [ -10597461.3405, 3445042.595899999141693 ], [ -10597381.5243, 3445347.008100003004074 ], [ -10597657.5968, 3446157.785300001502037 ], [ -10597340.5588, 3446784.329599998891354 ], [ -10597149.9797, 3446812.995800003409386 ], [ -10597016.3964, 3446610.286499999463558 ], [ -10596874.3527, 3447032.217299997806549 ], [ -10596914.873, 3447113.994199998676777 ], [ -10597226.5676, 3447159.042199999094009 ], [ -10597201.6321, 3446980.898900002241135 ], [ -10597324.5288, 3446915.375299997627735 ], [ -10597524.0134, 3446968.613200001418591 ], [ -10597740.5299, 3447514.312700003385544 ], [ -10598076.1582, 3446896.946999996900558 ], [ -10599094.9544, 3446882.613799996674061 ], [ -10599077.1432, 3446577.525600001215935 ], [ -10599395.9624, 3446493.576399996876717 ], [ -10599460.0824, 3446591.858400002121925 ], [ -10599367.1307, 3446807.108900003135204 ], [ -10599643.537, 3447044.374899998307228 ], [ -10600021.3554, 3446706.137800000607967 ], [ -10600244.7738, 3447005.981899999082088 ], [ -10600790.2393, 3447121.160899996757507 ], [ -10601324.5731, 3446737.235299997031689 ], [ -10601684.3578, 3447055.636699996888638 ], [ -10602055.2744, 3447158.914099998772144 ], [ -10602303.5168, 3447019.93129999935627 ], [ -10602313.5356, 3446895.667000003159046 ], [ -10602883.0463, 3446225.480099998414516 ], [ -10602949.838, 3446494.216099999845028 ], [ -10603328.3243, 3446558.201700001955032 ], [ -10603595.6026, 3446340.651799999177456 ], [ -10603473.1512, 3447198.075199998915195 ], [ -10603807.1097, 3448081.024700000882149 ], [ -10604107.6725, 3448528.985699996352196 ], [ -10604283.3346, 3449078.846900001168251 ], [ -10604152.2003, 3449373.754299998283386 ], [ -10604376.7318, 3449753.150100000202656 ], [ -10604417.4747, 3449884.994000002741814 ], [ -10604319.1795, 3450180.175700001418591 ], [ -10604541.8187, 3450564.203699998557568 ], [ -10604385.9713, 3450935.441500000655651 ], [ -10604475.027, 3451357.897399999201298 ], [ -10605020.4927, 3451537.125500001013279 ], [ -10606178.2156, 3451588.33389999717474 ], [ -10606567.834, 3451690.751299999654293 ], [ -10606745.9451, 3451895.588899999856949 ], [ -10607091.0357, 3451972.403599999845028 ], [ -10608342.601, 3451764.620300002396107 ], [ -10608627.3564, 3451857.181400001049042 ], [ -10608994.7108, 3451665.146799996495247 ], [ -10610074.5101, 3451716.355700001120567 ], [ -10610419.6007, 3451946.798500001430511 ], [ -10610909.5178, 3451972.403499998152256 ], [ -10611254.6084, 3451805.971799999475479 ], [ -10612245.352, 3452087.626500003039837 ], [ -10612846.4775, 3451626.740000002086163 ], [ -10612935.5331, 3451447.510899998247623 ], [ -10613247.2277, 3451409.104900002479553 ], [ -10613659.11, 3450897.164800003170967 ], [ -10613692.5057, 3450615.535899996757507 ], [ -10613892.8809, 3450397.917900003492832 ], [ -10614237.9714, 3450461.922799997031689 ], [ -10614538.6453, 3450372.3158999979496 ], [ -10614894.8679, 3450538.729000002145767 ], [ -10615340.146, 3450346.714000001549721 ], [ -10615896.7435, 3450436.320600003004074 ], [ -10616364.2855, 3450269.9087999984622 ], [ -10616876.3554, 3450628.336800001561642 ], [ -10617221.4459, 3450717.945600003004074 ], [ -10618124.9151, 3450511.9746999964118 ], [ -10618717.1349, 3450277.717100001871586 ], [ -10619080.5931, 3449885.889499999582767 ], [ -10619492.4753, 3450001.093999996781349 ], [ -10620293.9759, 3449898.689900003373623 ], [ -10621429.5464, 3450103.498700000345707 ], [ -10621785.7689, 3450077.89750000089407 ], [ -10622565.0054, 3449706.684299997985363 ], [ -10635177.8411, 3456466.996399998664856 ], [ -10635373.6522, 3456369.9199 ], [ -10635723.6407, 3456677.160700000822544 ], [ -10635847.6508, 3456536.026199996471405 ], [ -10636017.4129, 3456689.455600000917912 ], [ -10635901.4181, 3456851.211499996483326 ], [ -10643248.7292, 3460809.163999997079372 ], [ -10649380.6536, 3464750.903899997472763 ], [ -10649334.79, 3464979.144900001585484 ], [ -10649487.743, 3465035.917300000786781 ], [ -10649396.0157, 3465157.665100000798702 ], [ -10649946.3795, 3465445.635300002992153 ], [ -10649946.3795, 3465126.395099997520447 ], [ -10650043.1161, 3465178.682700000703335 ], [ -10664110.5641, 3474295.368000000715256 ], [ -10664113.5698, 3474416.177500002086163 ], [ -10664305.1506, 3474421.050999999046326 ], [ -10667326.8077, 3476364.804300002753735 ], [ -10668120.182, 3478919.6426 ], [ -10668098.1407, 3479062.562299996614456 ], [ -10668159.9231, 3479057.430699996650219 ], [ -10674350.8477, 3499059.964900001883507 ], [ -10674230.1772, 3499117.273999996483326 ], [ -10674279.4918, 3499282.006999999284744 ], [ -10677895.9295, 3510471.35419999808073 ], [ -10677929.8819, 3511778.876000002026558 ], [ -10678315.4928, 3511775.274599999189377 ], [ -10678347.6642, 3512375.961300000548363 ], [ -10678505.738, 3512375.060900002717972 ], [ -10682305.5188, 3524574.238499999046326 ], [ -10681948.8512, 3524426.430699996650219 ], [ -10680781.8886, 3523418.730800002813339 ], [ -10680510.1577, 3522632.530599996447563 ], [ -10680070.2227, 3522305.422700002789497 ], [ -10678738.3961, 3522080.532999999821186 ], [ -10677785.5011, 3520970.946400001645088 ], [ -10676747.669, 3520016.934000000357628 ], [ -10674462.9471, 3518854.376199997961521 ], [ -10673669.6843, 3518938.800700001418591 ], [ -10673518.5124, 3519240.725500002503395 ], [ -10673168.5237, 3519022.710900001227856 ], [ -10672784.6942, 3519154.754699997603893 ], [ -10672023.6025, 3518579.872299998998642 ], [ -10671374.7211, 3517857.413099996745586 ], [ -10671481.6991, 3517669.405500002205372 ], [ -10671498.731, 3517308.067800000309944 ], [ -10670739.4205, 3516660.697200000286102 ], [ -10670080.409, 3516683.214900001883507 ], [ -10669603.0708, 3516476.567299999296665 ], [ -10669169.8153, 3515728.108800001442432 ], [ -10669375.5337, 3514908.03320000320673 ], [ -10668675.5566, 3514236.212700001895428 ], [ -10668266.2347, 3514384.41669999808073 ], [ -10667754.944, 3514320.09179999679327 ], [ -10667464.4002, 3514115.540899999439716 ], [ -10666226.1931, 3514222.961900003254414 ], [ -10665441.2793, 3514589.100599996745586 ], [ -10665395.4155, 3514918.840400002896786 ], [ -10664498.6255, 3515314.333400003612041 ], [ -10664282.8884, 3515142.574199996888638 ], [ -10663134.6274, 3515393.330600000917912 ], [ -10663151.548, 3515712.4121999964118 ], [ -10662786.3087, 3515621.57599999755621 ], [ -10662359.955, 3515323.597000002861023 ], [ -10662354.8342, 3515175.382100000977516 ], [ -10660566.1522, 3514941.35530000180006 ], [ -10660333.4944, 3514714.280100002884865 ], [ -10660036.2713, 3514679.92960000038147 ], [ -10659939.4232, 3514799.062899999320507 ], [ -10659951.3345, 3514953.577600002288818 ], [ -10658791.0511, 3515841.462499998509884 ], [ -10658166.4373, 3515766.837099999189377 ], [ -10657967.6207, 3515955.331299997866154 ], [ -10657211.2046, 3515599.575000002980232 ], [ -10656513.2312, 3515769.281900003552437 ], [ -10655910.102, 3516185.0022 ], [ -10655271.462, 3516323.964699998497963 ], [ -10654982.6991, 3516665.072599999606609 ], [ -10654099.3788, 3516778.94879999756813 ], [ -10653786.9049, 3516637.53660000115633 ], [ -10653496.3609, 3516277.257799997925758 ], [ -10652957.1292, 3516526.10639999806881 ], [ -10652001.3398, 3516672.535700000822544 ], [ -10651905.8277, 3516730.82490000128746 ], [ -10651709.0147, 3517262.516099996864796 ], [ -10651475.2438, 3517301.1199000030756 ], [ -10651085.6254, 3517172.440999999642372 ], [ -10650606.9516, 3516812.147100001573563 ], [ -10649649.6036, 3516799.279600001871586 ], [ -10649638.4717, 3517108.102200001478195 ], [ -10648614.2209, 3517751.5066 ], [ -10648313.6582, 3517558.481799997389317 ], [ -10648176.1785, 3517575.081900000572205 ], [ -10647979.1429, 3518173.983499996364117 ], [ -10647246.9945, 3518893.629600003361702 ], [ -10646737.4851, 3519087.060699999332428 ], [ -10646389.2776, 3519546.004699997603893 ], [ -10645366.6965, 3519972.273999996483326 ], [ -10645082.9431, 3519821.945500001311302 ], [ -10644782.269, 3519908.821699999272823 ], [ -10644998.0062, 3520259.936599999666214 ], [ -10644845.0533, 3520885.480200000107288 ], [ -10644726.1641, 3521040.583800002932549 ], [ -10644238.6959, 3520904.144000001251698 ], [ -10643268.769, 3520869.776900000870228 ], [ -10642264.8896, 3520621.744199998676777 ], [ -10641947.2949, 3520685.0713 ], [ -10641670.4432, 3520910.451300002634525 ], [ -10641125.089, 3521067.614600002765656 ], [ -10640875.3994, 3521255.672600001096725 ], [ -10640557.6934, 3521868.521499998867512 ], [ -10640421.7723, 3522408.537699997425079 ], [ -10640026.0315, 3522808.254799999296665 ], [ -10638896.4724, 3523191.89190000295639 ], [ -10638816.6562, 3523323.464100003242493 ], [ -10638891.3515, 3523533.1841000020504 ], [ -10638765.6718, 3523864.70099999755621 ], [ -10638369.931, 3524184.381499998271465 ], [ -10638006.3615, 3524182.965400002896786 ], [ -10637710.6969, 3523943.751299999654293 ], [ -10637444.0865, 3524220.689000003039837 ], [ -10637427.0548, 3524760.547700002789497 ], [ -10637330.2068, 3524982.008500002324581 ], [ -10636927.6752, 3525253.174500003457069 ], [ -10636859.7705, 3525480.052000001072884 ], [ -10636604.9601, 3525485.975100003182888 ], [ -10636457.1277, 3525383.351700000464916 ], [ -10635582.1563, 3525445.80120000243187 ], [ -10635128.8632, 3525287.553599998354912 ], [ -10633773.3254, 3524512.439099997282028 ], [ -10633671.3568, 3524318.925399996340275 ], [ -10633712.0996, 3523977.096900001168251 ], [ -10633486.2324, 3523521.340000003576279 ], [ -10633209.3807, 3523242.873000003397465 ], [ -10631143.8469, 3522025.182099997997284 ], [ -10630555.9684, 3520485.824299998581409 ], [ -10630764.9152, 3519420.907499998807907 ], [ -10630019.297, 3517673.782399997115135 ], [ -10629681.2196, 3517404.837099999189377 ], [ -10629049.37, 3517354.7804000005126 ], [ -10628862.4646, 3517159.831399999558926 ], [ -10628327.4629, 3516868.765000000596046 ] ] ] } }
]
}
